OBJECT_NAME,OBJECT_ID,EPOCH,MEAN_MOTION,ECCENTRICITY,INCLINATION,RA_OF_ASC_NODE,ARG_OF_PERICENTER,MEAN_ANOMALY,EPHEMERIS_TYPE,CLASSIFICATION_TYPE,NORAD_CAT_ID,ELEMENT_SET_NO,REV_AT_EPOCH,BSTAR,MEAN_MOTION_DOT,MEAN_MOTION_DDOT
KKS-1 (KISEKI),2009-002H,2026-06-27T04:10:38.413344,14.83147944,.0006395,98.1187,100.7747,256.2471,103.8030,0,U,33499,999,93767,.17153E-3,.1343E-4,0
UK-DMC 2,2009-041C,2026-06-27T04:34:53.474016,14.76070601,.0001185,97.8847,312.9132,103.7727,256.3615,0,U,35683,999,90804,.19424E-3,.129E-4,0
OCEANSAT-2,2009-051A,2026-06-27T04:58:54.333984,13.99661232,.0016034,98.2319,164.0591,206.0247,154.0115,0,U,35931,999,88073,-.13283E-3,-.232E-5,0
SWISSCUBE,2009-051B,2026-06-27T00:29:49.941888,14.62499043,.0006677,98.4029,86.0801,170.6881,189.4445,0,U,35932,999,89059,.2001E-3,.965E-5,0
BEESAT-1,2009-051C,2026-06-26T16:37:56.369856,14.61734342,.00048484,98.3957,85.3622,183.3217,176.7952,0,U,35933,999,89057,.16075564E-3,.752E-5,0
ITUPSAT1,2009-051E,2026-06-26T16:36:48.655584,14.60453570,.00067507,98.4042,84.5432,199.9772,160.1164,0,U,35935,999,89012,.15443273E-3,.7E-5,0
DMSP 5D-3 F18 (USA 210),2009-057A,2026-06-27T04:23:07.782144,14.14902243,.0010209,98.9041,158.9303,218.1903,141.8548,0,U,35951,999,86100,.14355E-3,.233E-5,0
PROBA-2,2009-059B,2026-06-27T01:48:32.004288,14.54866422,.0012012,98.2451,1.2911,248.1591,111.8329,0,U,36037,999,88296,.5662E-4,.198E-5,0
YAOGAN-7,2009-069A,2026-06-27T04:13:23.744064,14.78019409,.0024866,98.0061,63.9808,10.4768,349.6955,0,U,36110,999,89110,.76364E-4,.501E-5,0
XIWANG-1 (HOPE-1),2009-072B,2026-06-27T02:58:13.408320,13.16440217,.0007038,100.4023,131.7972,207.0962,152.9784,0,U,36122,999,79431,.11598E-3,0,0
COSMOS 2463,2010-017A,2026-06-27T04:24:04.436352,13.71666199,.0037613,82.9597,242.3618,102.0793,318.1284,0,U,36519,999,80930,.34623E-4,.47E-6,0
CARTOSAT-2B,2010-035A,2026-06-27T03:38:34.058976,14.78672283,.0012009,97.9954,228.6381,152.0628,208.1230,0,U,36795,999,86132,.72351E-4,.478E-5,0
TISAT 1,2010-035E,2026-06-27T02:40:08.467968,15.32075173,.0002787,98.0704,125.5427,151.6215,208.5177,0,U,36799,999,86922,.69124E-3,.21359E-3,0
YAOGAN-10,2010-038A,2026-06-27T04:36:19.224288,14.85380916,.0001768,97.8978,201.5165,86.1326,4.1549,0,U,36834,999,85869,.27056E-3,.2275E-4,0
SHIJIAN-6 04B (SJ-6 04B),2010-051B,2026-06-27T04:00:39.892032,14.99345190,.0006966,97.8706,183.6811,278.8876,81.1558,0,U,37180,999,85717,.16687E-3,.1979E-4,0
FENGYUN 3B,2010-059A,2026-06-27T05:01:28.269408,14.14843393,.0022492,98.9620,224.2663,155.7581,290.6820,0,U,37214,999,80884,.11444E-3,.176E-5,0
COSMO-SKYMED 4,2010-060A,2026-06-27T03:57:59.123232,14.82152245,.000148,97.8889,1.6206,84.2448,275.8934,0,U,37216,999,84604,.24819E-4,.145E-5,0
O/OREOS (USA 219),2010-062C,2026-06-27T00:58:25.152096,14.93783616,.0012924,71.9714,58.0196,42.0426,318.1734,0,U,37224,999,11811,.2231E-3,.2307E-4,0
RESOURCESAT-2,2011-015A,2026-06-27T03:41:24.895104,14.21602089,.0010547,98.7641,245.5266,224.0287,136.0051,0,U,37387,999,78759,.59101E-4,.85E-6,0
YOUTHSAT,2011-015B,2026-06-26T21:51:22.459968,14.25633964,.001361,98.3687,151.5265,317.5484,96.7992,0,U,37388,999,78902,.8688E-4,.165E-5,0
APRIZESAT 6,2011-044F,2026-06-27T00:41:30.322752,14.76930201,.004428,98.2359,88.7291,55.5096,316.0196,0,U,37793,999,79860,.11856E-3,.791E-5,0
JUGNU,2011-058B,2026-06-26T21:55:50.744928,14.13779071,.0018444,19.9597,249.3371,183.2856,332.8974,0,U,37839,999,76040,.71065E-4,.404E-5,0
SRMSAT,2011-058D,2026-06-27T04:57:06.645024,14.11577536,.0011727,19.9735,358.8265,314.5586,200.6524,0,U,37841,999,75923,.58207E-4,.372E-5,0
SUOMI NPP,2011-061A,2026-06-27T05:00:21.834720,14.19519329,.0000958,98.7954,119.0162,337.1617,22.9516,0,U,37849,999,75986,.44305E-4,.49E-6,0
YAOGAN-12,2011-066B,2026-06-27T03:54:49.364640,15.26713978,.0009849,97.1142,216.2624,178.7502,181.3764,0,U,37875,999,81356,.19696E-3,.5112E-4,0
BEIDOU-2 M4,2012-018B,2026-06-26T05:58:57.768672,1.86229631,.00117016,55.6492,303.7834,273.7859,86.0713,0,U,38251,999,9611,0,-.103E-5,0
